ORBCOMM FM37            
1 33064U 08031E   25091.96140670  .00003121  00000+0  44207-3 0  9994
2 33064  48.4405 345.9303 0005296  44.5953 330.2098 14.79384367902763
ORBCOMM FM40            
1 33065U 08031F   25091.91978689  .00003574  00000+0  47765-3 0  9993
2 33065  48.4422 331.4128 0006435  59.0495 316.0007 14.81520538902853
VESSELSAT 1             
1 37840U 11058C   25091.95418060  .00000457  00000+0  10471-3 0  9998
2 37840  19.9607 195.1680 0013794  68.0716 292.1154 14.11332228695526
ORBCOMM FM109           
1 40086U 14040A   25091.91998680  .00001583  00000+0  37771-3 0  9998
2 40086  47.0052  16.4515 0002177 337.0854  22.9934 14.58000251569934
ORBCOMM FM107           
1 40087U 14040B   25091.88343729  .00001593  00000+0  37953-3 0  9996
2 40087  47.0066  17.6146 0001876 293.7660  66.3028 14.58062319570000
ORBCOMM FM106           
1 40088U 14040C   25091.66630678  .00002426  00000+0  43874-3 0  9990
2 40088  47.0593 206.8541 0015990  71.0652 289.1970 14.69188498572223
ORBCOMM FM111           
1 40089U 14040D   25091.91133653  .00004938  00000+0  58193-3 0  9990
2 40089  47.0015  66.0643 0030071 188.6406 171.3976 14.85740947578888
ORBCOMM FM104           
1 40090U 14040E   25091.92566852  .00001362  00000+0  34070-3 0  9990
2 40090  47.0057  50.1099 0016662 219.4369 140.5304 14.56487325569504
